[{"OBJECT_NAME":"STARLINK-30193","OBJECT_ID":"2023-102L","EPOCH":"2026-03-09T22:00:01.999584","MEAN_MOTION":15.10744148,"ECCENTRICITY":0.00016947,"INCLINATION":42.9997,"RA_OF_ASC_NODE":246.9413,"ARG_OF_PERICENTER":308.1535,"MEAN_ANOMALY":232.3988,"EPHEMERIS_TYPE":0,"CLASSIFICATION_TYPE":"U","NORAD_CAT_ID":57414,"ELEMENT_SET_NO":999,"REV_AT_EPOCH":577,"BSTAR":0.0057967692,"MEAN_MOTION_DOT":0.00098963,"MEAN_MOTION_DDOT":0},{"OBJECT_NAME":"PIESAT-2 11","OBJECT_ID":"2024-241C","EPOCH":"2026-03-07T12:28:16.019904","MEAN_MOTION":15.13471753,"ECCENTRICITY":0.00017821,"INCLINATION":97.5216,"RA_OF_ASC_NODE":15.2882,"ARG_OF_PERICENTER":92.1609,"MEAN_ANOMALY":267.9826,"EPHEMERIS_TYPE":0,"CLASSIFICATION_TYPE":"U","NORAD_CAT_ID":62335,"ELEMENT_SET_NO":999,"REV_AT_EPOCH":6743,"BSTAR":0.00087235148,"MEAN_MOTION_DOT":0.00015561,"MEAN_MOTION_DDOT":0}]
